COSMOS 2425 (716)       
1 29670U 06062A   18299.31977105  .00000021  00000-0  10000-3 0  9997
2 29670  65.2175 288.1025 0021336 338.2005 255.3719  2.13105002 92102
COSMOS 2426 (717)       
1 29671U 06062B   18299.26396047  .00000021  00000-0  10000-3 0  9992
2 29671  65.2352 288.2031 0018073 174.6052 230.9478  2.13103021 92117
COSMOS 2433 (720)       
1 32275U 07052A   18299.22160508 -.00000026  00000-0  10000-3 0  9999
2 32275  65.7507  48.9709 0002818 218.2549 130.8370  2.13104575 85618
COSMOS 2432 (719)       
1 32276U 07052B   18299.39805271 -.00000025  00000-0  10000-3 0  9990
2 32276  65.7630  49.0432 0008913 333.3188 102.7982  2.13103794 85621
COSMOS 2434 (721)       
1 32393U 07065A   18299.38399949  .00000021  00000-0  00000+0 0  9993
2 32393  64.8315 287.0135 0002387 161.9073 199.5237  2.13103005 84331
COSMOS 2436 (723)       
1 32395U 07065C   18299.31491623  .00000021  00000-0  10000-3 0  9995
2 32395  64.8418 287.0661 0014792 349.4806  10.0978  2.13104369 84255
COSMOS 2456 (730)       
1 36111U 09070A   18299.31713728  .00000075  00000-0  00000+0 0  9990
2 36111  64.1887 166.6200 0003565 331.4689 151.2770  2.13103081 68996
COSMOS 2457 (733)       
1 36112U 09070B   18299.26433492  .00000076  00000-0  00000+0 0  9993
2 36112  64.1682 166.5298 0006134 157.6632  50.7813  2.13101622 68997
COSMOS 2458 (734)       
1 36113U 09070C   18299.32239668  .00000075  00000-0  10000-3 0  9994
2 36113  64.1732 166.5414 0002568  39.3665 257.6141  2.13091610 68990
COSMOS 2459 (731)       
1 36400U 10007A   18299.42401110 -.00000027  00000-0  10000-3 0  9997
2 36400  65.6584  48.0082 0024682 352.9814   9.2537  2.13102125 67359
COSMOS 2461 (735)       
1 36401U 10007B   18298.66280027 -.00000029  00000-0  10000-3 0  9997
2 36401  65.6510  48.0081 0007051  81.4861 327.3545  2.13102074 67339
COSMOS 2460 (732)       
1 36402U 10007C   18299.00882775 -.00000028  00000-0  10000-3 0  9994
2 36402  65.6414  47.9630 0001734 148.6542 206.0087  2.13101613 67337
COSMOS 2464 (736)       
1 37139U 10041C   18299.20498726  .00000020  00000-0  00000+0 0  9997
2 37139  64.4352 286.7589 0022766   5.4245  86.4898  2.13102778 63415
COSMOS 2471 (701K)      
1 37372U 11009A   18299.39865431 -.00000027  00000-0  00000+0 0  9990
2 37372  65.6378  47.8930 0008801 222.4114 218.0985  2.13107593 59629
COSMOS 2474 (742)       
1 37829U 11055A   18299.25446045  .00000076  00000-0  00000+0 0  9992
2 37829  64.5105 167.3944 0007513 243.7120  48.4602  2.13101935 54986
COSMOS 2476 (744)       
1 37867U 11064A   18299.17634992  .00000076  00000-0  00000+0 0  9995
2 37867  64.4907 167.4556 0017409 238.9047  39.4124  2.13101958 54339
COSMOS 2477 (745)       
1 37868U 11064B   18299.45861553  .00000074  00000-0  00000+0 0  9990
2 37868  64.4995 167.4975 0015172 239.9569  73.7451  2.13101885 54295
COSMOS 2475 (743)       
1 37869U 11064C   18299.31254238  .00000075  00000-0  00000+0 0  9993
2 37869  64.5049 167.4973 0019243 266.2940 252.2254  2.13102263 54302
COSMOS 2485 (747)       
1 39155U 13019A   18299.36673330  .00000075  00000-0  00000+0 0  9998
2 39155  64.6595 167.5880 0017924 233.9769 235.2464  2.13102061 42814
COSMOS 2492 (754)       
1 39620U 14012A   18299.27158241 -.00000028  00000-0  10000-3 0  9992
2 39620  65.5319  47.8205 0012235 328.6008 102.5259  2.13103398 35762
COSMOS 2500 (755)       
1 40001U 14032A   18299.36230319 -.00000027  00000-0  00000+0 0  9990
2 40001  65.4734  47.7779 0007291 195.1673 167.5295  2.13102625 33988
COSMOS 2501 (702K)      
1 40315U 14075A   18299.24894655  .00000019  00000-0  00000+0 0  9991
2 40315  64.1592 287.9207 0017292 212.1226 223.8648  2.13098568 30383
COSMOS 2514 (751)       
1 41330U 16008A   18298.97572634 -.00000029  00000-0  00000+0 0  9998
2 41330  65.2753  47.8115 0010301 205.7970  41.5114  2.13103204 21131
COSMOS 2516 (753)       
1 41554U 16032A   18299.39601344  .00000020  00000-0  00000+0 0  9991
2 41554  64.3800 287.8188 0014692 224.6062 235.9660  2.13101725 18752
COSMOS 2522 (752)       
1 42939U 17055A   18299.25010512  .00000020  00000-0  00000+0 0  9991
2 42939  64.6103 287.8295 0010223 247.7006 327.3694  2.13101959  8502
